2023-003E               
1 55137U 23003E   23013.48788787  .00009184  00000+0  41250-3 0  9991
2 55137  97.2685 103.4302 0012170 283.0705 207.4376 15.21308505   648
ONEWEB-0532             
1 55140U 23004A   23013.58334491  .00058958  00000+0  59265-2 0  9993
2 55140  86.5115 284.2913 0010408 200.3270  77.7292 14.90920629  1309
ONEWEB-0533             
1 55141U 23004B   23013.66667824  .00060661  00000+0  60728-2 0  9992
2 55141  86.5110 284.2518 0011049 200.9047 165.8793 14.91070197   666
ONEWEB-0541             
1 55142U 23004C   23013.66667824  .00061626  00000+0  62282-2 0  9992
2 55142  86.5126 284.2555 0009173 198.6772 163.5143 14.90698209   661
ONEWEB-0543             
1 55143U 23004D   23013.58334491  .00058864  00000+0  59631-2 0  9999
2 55143  86.5137 284.2935 0008915 200.5500  73.8421 14.90620401  1304
ONEWEB-0544             
1 55144U 23004E   23013.66667824  .00061417  00000+0  60691-2 0  9994
2 55144  86.5107 284.2540 0012704 209.0510 163.9281 14.91571955   663
ONEWEB-0560             
1 55145U 23004F   23013.66667824  .00060923  00000+0  60171-2 0  9999
2 55145  86.5124 284.2518 0012734 209.5087 163.6940 14.91595789   665
ONEWEB-0565             
1 55146U 23004G   23013.66667824  .00062058  00000+0  60887-2 0  9995
2 55146  86.5107 284.2534 0013013 214.3757 161.9262 14.91851718   669
ONEWEB-0567             
1 55147U 23004H   23013.66667824  .00062145  00000+0  61068-2 0  9995
2 55147  86.5099 284.2535 0012892 213.1225 162.3752 14.91789964   664
ONEWEB-0569             
1 55148U 23004J   23013.53103384  .00004837  00000+0  48401-3 0  9999
2 55148  86.5115 284.3108 0011213 203.2730 156.7991 14.91177791   647
ONEWEB-0570             
1 55149U 23004K   23013.66667824  .00061935  00000+0  61742-2 0  9992
2 55149  86.5109 284.2517 0011592 203.0512 165.6249 14.91228456   662
ONEWEB-0571             
1 55150U 23004L   23013.66667824  .00061945  00000+0  61035-2 0  9990
2 55150  86.5131 284.2519 0012872 210.9794 163.2098 14.91684301   663
ONEWEB-0572             
1 55151U 23004M   23013.58334491  .00059904  00000+0  59934-2 0  9990
2 55151  86.5120 284.2934 0011101 201.7064  78.3851 14.91098023  1300
ONEWEB-0573             
1 55152U 23004N   23013.66667824  .00060931  00000+0  60839-2 0  9997
2 55152  86.5121 284.2561 0011337 202.1246 165.8902 14.91171172   660
ONEWEB-0588             
1 55153U 23004P   23013.58334491  .00060219  00000+0  61174-2 0  9992
2 55153  86.5138 284.2941 0008435 201.8975  71.0977 14.90503959  1304
ONEWEB-0598             
1 55154U 23004Q   23013.58334491  .00060432  00000+0  61125-2 0  9996
2 55154  86.5094 284.2908 0009122 199.7650  75.2315 14.90672372  1306
ONEWEB-0599             
1 55155U 23004R   23013.66667824  .00062149  00000+0  61995-2 0  9997
2 55155  86.5122 284.2561 0011510 202.8285 165.5364 14.91202385   667
ONEWEB-0614             
1 55156U 23004S   23013.66667824  .00061885  00000+0  62485-2 0  9999
2 55156  86.5113 284.2548 0009354 198.2563 164.3551 14.90733327   662
ONEWEB-0616             
1 55157U 23004T   23013.58334491  .00059940  00000+0  60163-2 0  9992
2 55157  86.5107 284.2891 0010658 200.6205  78.1090 14.90972435  1304
ONEWEB-0617             
1 55158U 23004U   23013.58334491  .00059786  00000+0  60928-2 0  9990
2 55158  86.5131 284.2933 0008021 203.7737  67.8520 14.90380014  1303
ONEWEB-0618             
1 55159U 23004V   23013.66667824  .00062201  00000+0  62293-2 0  9992
2 55159  86.5122 284.2561 0010843 200.3968 165.8644 14.91048336   668
ONEWEB-0619             
1 55160U 23004W   23013.66667824  .00061206  00000+0  60883-2 0  9991
2 55160  86.5114 284.2532 0011959 203.2979 166.3090 14.91316170   667
ONEWEB-0620             
1 55161U 23004X   23013.58334491  .00060133  00000+0  60932-2 0  9997
2 55161  86.5091 284.2904 0008799 201.1033  72.9917 14.90603881  1300
ONEWEB-0621             
1 55162U 23004Y   23013.58334491  .00058980  00000+0  60209-2 0  9992
2 55162  86.5115 284.2926 0007873 205.0983  65.9096 14.90317349  1302
ONEWEB-0622             
1 55163U 23004Z   23013.66667824  .00062084  00000+0  63176-2 0  9997
2 55163  86.5134 284.2567 0008161 202.8029 156.0333 14.90426640   661
ONEWEB-0623             
1 55164U 23004AA  23013.66667824  .00062268  00000+0  61404-2 0  9994
2 55164  86.5101 284.2537 0012841 210.7798 163.1440 14.91649747   668
ONEWEB-0624             
1 55165U 23004AB  23013.58334491  .00059327  00000+0  58300-2 0  9990
2 55165  86.5129 284.2881 0012869 214.0580  74.5063 14.91804298  1309
ONEWEB-0625             
1 55166U 23004AC  23013.58334491  .00059837  00000+0  59946-2 0  9994
2 55166  86.5110 284.2888 0010937 201.1516  78.3613 14.91046747  1307
ONEWEB-0626             
1 55167U 23004AD  23013.66667824  .00061417  00000+0  60275-2 0  9997
2 55167  86.5104 284.2533 0012957 214.2590 161.9558 14.91845002   665
ONEWEB-0627             
1 55168U 23004AE  23013.66667824  .00061684  00000+0  60759-2 0  9991
2 55168  86.5098 284.2534 0012886 211.4366 162.9820 14.91697874   665
ONEWEB-0628             
1 55169U 23004AF  23013.66667824  .00061505  00000+0  60493-2 0  9999
2 55169  86.5132 284.2516 0012866 212.6004 162.5658 14.91758070   666
ONEWEB-0629             
1 55170U 23004AG  23013.66667824  .00061546  00000+0  60279-2 0  9998
2 55170  86.5116 284.2520 0013165 215.5708 161.6118 14.91923215   667
ONEWEB-0631             
1 55171U 23004AH  23013.66667824  .00062550  00000+0  61701-2 0  9996
2 55171  86.5127 284.2516 0012788 210.2209 163.4211 14.91636525   662
ONEWEB-0709             
1 55172U 23004AJ  23013.66667824  .00062225  00000+0  63080-2 0  9998
2 55172  86.5092 284.2533 0008734 201.1497 159.4317 14.90574873   665
ONEWEB-0710             
1 55173U 23004AK  23013.66667824  .00061590  00000+0  60896-2 0  9995
2 55173  86.5115 284.2530 0012606 208.5911 164.0311 14.91550058   660
ONEWEB-0711             
1 55174U 23004AL  23013.58334491  .00059488  00000+0  60526-2 0  9991
2 55174  86.5091 284.2910 0008245 202.7222  69.6201 14.90445605  1301
ONEWEB-0713             
1 55175U 23004AM  23013.66667824  .00062832  00000+0  64008-2 0  9996
2 55175  86.5101 284.2551 0007989 203.9808 154.2425 14.90378851   667
ONEWEB-0715             
1 55176U 23004AN  23013.66667824  .00060841  00000+0  61848-2 0  9994
2 55176  86.5137 284.2570 0008374 201.7539 157.7538 14.90473215   667
ONEWEB-0716             
1 55177U 23004AP  23013.66667824  .00062064  00000+0  61815-2 0  9998
2 55177  86.5123 284.2555 0011772 203.2254 165.8568 14.91262057   667
ONEWEB-0717             
1 55178U 23004AQ  23013.58334491  .00059139  00000+0  59887-2 0  9996
2 55178  86.5095 284.2908 0008965 200.3091  74.2713 14.90633264  1303
ONEWEB-0719             
1 55179U 23004AR  23013.66667824  .00062199  00000+0  62426-2 0  9998
2 55179  86.5108 284.2529 0010574 200.1597 165.2629 14.90963548   662
1998-067UY              
1 55181U 98067UY  23013.30374372  .00076173  00000+0  12668-2 0  9996
2 55181  51.6420  15.6895 0003372 220.7424 139.3314 15.51365324  1088
HSKSAT                  
1 55182U 98067UZ  23013.30324872  .00053376  00000+0  89317-3 0  9993
2 55182  51.6419  15.6864 0002840 204.3389 155.7467 15.51346832  1095
1998-067VA              
1 55183U 98067VA  23013.30340877  .00046731  00000+0  78581-3 0  9995
2 55183  51.6426  15.6876 0005154 298.6127  61.4344 15.51258578  1090
2023-005A               
1 55239U 23005A   23013.40443782  .00001842 -58154-5  00000+0 0  9998
2 55239  28.5069  20.9695 0303135  94.8805  15.9549 15.43747340   108
2023-005B               
1 55240U 23005B   23013.38178824  .00002034 -64164-5  00000+0 0  9991
2 55240  28.5023  20.9565 0202706 113.4980 280.7434 15.74736525   102
2023-006A               
1 55242U 23006A   23013.62601020 -.00000241  00000+0  00000+0 0  9991
2 55242  43.2022 204.4600 0010862 287.1085 189.6678 15.16780571    58
2023-006B               
1 55243U 23006B   23013.62602304 -.00000241  00000+0  00000+0 0  9998
2 55243  43.2015 204.4640 0010099 286.7859 189.9953 15.16718286    54
2023-006C               
1 55244U 23006C   23013.68985789 -.00000238  00000+0  00000+0 0  9992
2 55244  43.1995 204.1212 0007019 269.9785 194.8857 15.16090558    11
2023-006D               
1 55245U 23006D   23013.68939906 -.00000239  00000+0  00000+0 0  9994
2 55245  43.1998 204.1265 0008247 276.7471 185.7179 15.16183587    27
NOAA 1 [-]              
1 04793U 70106A   23013.44913808 -.00000041  00000+0  19778-4 0  9994
2 04793 101.5289  76.7366 0031311 273.0713  97.9721 12.54010780383915
NOAA 2 (ITOS-D) [-]     
1 06235U 72082A   23013.51352792 -.00000022  00000+0  15218-3 0  9992
2 06235 101.9780   2.2360 0004178  35.1179  78.2209 12.53156003298286
NOAA 3 [-]              
1 06920U 73086A   23013.50657082 -.00000021  00000+0  18555-3 0  9993
2 06920 102.2329   0.8479 0006463 264.8572 213.2804 12.40351974226836
NOAA 4 [-]              
1 07529U 74089A   23013.57041948  .00000003  00000+0  30903-3 0  9998
2 07529 101.9404 359.0192 0009173  62.2584  46.7496 12.53164662202860
NOAA 5 [-]              
1 09057U 76077A   23013.54939083  .00000001  00000+0  35453-3 0  9991
2 09057 102.1321 344.5304 0009796 110.4489   0.8363 12.37778454 99730
TIROS N [-]             
1 11060U 78096A   23013.55815515  .00000261  00000+0  14718-3 0  9994
2 11060  98.6080  66.4286 0009576 256.6296 103.3812 14.18464292501393
NOAA 6 [-]              
1 11416U 79057A   23013.52265421  .00000533  00000+0  20752-3 0  9996
2 11416  98.6596  29.6674 0010340   4.9661 355.1624 14.33878382271627
NOAA 7 [-]              
1 12553U 81059A   23013.10553797  .00000109  00000+0  76158-4 0  9995
2 12553  98.9715  64.8212 0010692 236.7028 123.3123 14.17368153147495
NOAA 8 [-]              
1 13923U 83022A   23013.50648550  .00000294  00000+0  13390-3 0  9998
2 13923  98.7034   8.4121 0014379 318.6114  41.3977 14.28880335 72401
